ONEWEB-0620             
1 55161U 23004X   26168.51969060  .00000096  00000+0  23386-3 0  9995
2 55161  87.8884  21.0109 0001884  93.8385 266.2958 13.11413379165871
ONEWEB-0621             
1 55162U 23004Y   26168.08903510 -.00000502  00000+0 -14531-2 0  9991
2 55162  87.8895  21.0855 0002004  81.0258 279.1097 13.11417625165791
ONEWEB-0622             
1 55163U 23004Z   26168.09412728 -.00000293  00000+0 -86207-3 0  9996
2 55163  87.8895  21.0870 0002544  88.4620 271.6799 13.11418984165786
ONEWEB-0623             
1 55164U 23004AA  26168.47377241  .00000025  00000+0  32236-4 0  9994
2 55164  87.9130   5.8216 0002522  77.1059 283.0354 13.17649993167622
ONEWEB-0624             
1 55165U 23004AB  26168.49973330  .00000271  00000+0  71383-3 0  9996
2 55165  87.8945 350.5229 0001888  88.4576 271.6769 13.12927910168114
ONEWEB-0625             
1 55166U 23004AC  26168.46365692 -.00000014  00000+0 -67982-4 0  9998
2 55166  87.9132   5.8193 0001697  85.3745 274.7580 13.17649285167616
ONEWEB-0626             
1 55167U 23004AD  26168.52946977  .00000018  00000+0  13873-4 0  9999
2 55167  87.9131   5.8058 0001896 101.5468 258.5876 13.17649491167628
ONEWEB-0627             
1 55168U 23004AE  26168.51764852 -.00000025  00000+0 -96882-4 0  9990
2 55168  87.9130   5.8086 0002290  80.3030 279.8361 13.17647991167625
ONEWEB-0628             
1 55169U 23004AF  26168.48126032  .00000235  00000+0  61918-3 0  9991
2 55169  87.8947 350.5944 0002340  77.3440 282.7950 13.12445524168071
ONEWEB-0629             
1 55170U 23004AG  26168.49317477 -.00000019  00000+0 -81922-4 0  9999
2 55170  87.9130   5.8095 0001883  77.5006 282.6337 13.17647766167621
ONEWEB-0631             
1 55171U 23004AH  26168.48086617  .00000024  00000+0  29369-4 0  9999
2 55171  87.9169 335.3768 0002256 102.0592 258.0793 13.18685172169710
ONEWEB-0709             
1 55172U 23004AJ  26168.50953365  .00000452  00000+0  12388-2 0  9992
2 55172  87.8882  21.0151 0001781 114.0073 246.1242 13.11414955165913
ONEWEB-0710             
1 55173U 23004AK  26168.50752369 -.00000022  00000+0 -89563-4 0  9990
2 55173  87.9131   5.8021 0002003  87.1338 273.0023 13.17649239167627
ONEWEB-0711             
1 55174U 23004AL  26168.09922101 -.00000001  00000+0 -38909-4 0  9993
2 55174  87.8887  21.0842 0002544  81.1939 278.9477 13.11420753165826
ONEWEB-0713             
1 55175U 23004AM  26168.49936721  .00000517  00000+0  14219-2 0  9997
2 55175  87.8888  21.0062 0002194  83.0318 277.1059 13.11416615165868
ONEWEB-0715             
1 55176U 23004AN  26168.49426927  .00000452  00000+0  12381-2 0  9996
2 55176  87.8887  21.0079 0002074 104.7780 255.3578 13.11419219165909
ONEWEB-0716             
1 55177U 23004AP  26168.50077308 -.00000025  00000+0 -96303-4 0  9990
2 55177  87.9132   5.8061 0001641  85.8285 274.3034 13.17650107167621
ONEWEB-0717             
1 55178U 23004AQ  26168.48390244  .00000029  00000+0  41775-4 0  9990
2 55178  87.9143   5.7968 0002433  88.9525 271.1885 13.17649031167678
ONEWEB-0719             
1 55179U 23004AR  26168.49403181 -.00000008  00000+0 -54392-4 0  9995
2 55179  87.9140   5.7753 0001753  82.5111 277.6219 13.17649087167621
ONEWEB-0530             
1 55796U 23029A   26168.31720623  .00000194  00000+0  44488-3 0  9999
2 55796  87.9184 274.4430 0002317  91.3947 268.7452 13.20771802161161
ONEWEB-0534             
1 55797U 23029B   26168.30541495  .00000081  00000+0  16805-3 0  9994
2 55797  87.9186 274.4459 0001852 100.7969 259.3373 13.20771784161164
ONEWEB-0556             
1 55798U 23029C   26168.31214512  .00000128  00000+0  28365-3 0  9999
2 55798  87.9184 274.4440 0001590  75.3531 284.7779 13.20774023161165
ONEWEB-0562             
1 55799U 23029D   26168.29867902  .00000056  00000+0  10498-3 0  9992
2 55799  87.9184 274.4276 0002280  78.7442 281.3948 13.20770989161166
ONEWEB-0563             
1 55800U 23029E   26168.29360601 -.00019776  00000+0 -48706-1 0  9991
2 55800  87.9183 274.4589 0001204 103.8462 256.2805 13.20869212161152
ONEWEB-0564             
1 55801U 23029F   26168.05963365  .00000027  00000+0  33594-4 0  9991
2 55801  87.9186 274.4791 0002137  90.4465 269.6913 13.20770664161139
ONEWEB-0638             
1 55802U 23029G   26168.31696488  .00000476  00000+0  12485-2 0  9992
2 55802  87.8954 289.7257 0001717  82.8651 277.2674 13.14503823159414
ONEWEB-0639             
1 55803U 23029H   26168.41100249  .00000103  00000+0  22422-3 0  9999
2 55803  87.9170 304.9312 0001314 128.7965 231.3285 13.19725442158932
ONEWEB-0640             
1 55804U 23029J   26168.40258628  .00000224  00000+0  56893-3 0  9997
2 55804  87.8956 289.6996 0001344  84.4030 275.7253 13.14503072159447
ONEWEB-0641             
1 55805U 23029K   26168.40625700  .00000097  00000+0  20969-3 0  9990
2 55805  87.9179 304.9213 0001782 103.7965 256.3366 13.19725007158940
ONEWEB-0642             
1 55806U 23029L   26168.40152525  .00000164  00000+0  37819-3 0  9998
2 55806  87.9170 304.9340 0001595 126.1193 234.0088 13.19725146158934
ONEWEB-0643             
1 55807U 23029M   26168.37245919 -.00000092  00000+0 -28359-3 0  9996
2 55807  87.8954 289.6927 0001928 121.6575 238.4743 13.14503123159412
