OBJECT_NAME,OBJECT_ID,EPOCH,MEAN_MOTION,ECCENTRICITY,INCLINATION,RA_OF_ASC_NODE,ARG_OF_PERICENTER,MEAN_ANOMALY,EPHEMERIS_TYPE,CLASSIFICATION_TYPE,NORAD_CAT_ID,ELEMENT_SET_NO,REV_AT_EPOCH,BSTAR,MEAN_MOTION_DOT,MEAN_MOTION_DDOT
ONEWEB-0620,2023-004X,2026-06-17T12:28:21.267840,13.11413379,.0001884,87.8884,21.0109,93.8385,266.2958,0,U,55161,999,16587,.23386E-3,.96E-6,0
ONEWEB-0621,2023-004Y,2026-06-17T02:08:12.632640,13.11417625,.0002004,87.8895,21.0855,81.0258,279.1097,0,U,55162,999,16579,-.14531E-2,-.502E-5,0
ONEWEB-0622,2023-004Z,2026-06-17T02:15:32.596992,13.11418984,.0002544,87.8895,21.0870,88.4620,271.6799,0,U,55163,999,16578,-.86207E-3,-.293E-5,0
ONEWEB-0623,2023-004AA,2026-06-17T11:22:13.936224,13.17649993,.0002522,87.9130,5.8216,77.1059,283.0354,0,U,55164,999,16762,.32236E-4,.25E-6,0
ONEWEB-0624,2023-004AB,2026-06-17T11:59:36.957120,13.12927910,.0001888,87.8945,350.5229,88.4576,271.6769,0,U,55165,999,16811,.71383E-3,.271E-5,0
ONEWEB-0625,2023-004AC,2026-06-17T11:07:39.957888,13.17649285,.0001697,87.9132,5.8193,85.3745,274.7580,0,U,55166,999,16761,-.67982E-4,-.14E-6,0
ONEWEB-0626,2023-004AD,2026-06-17T12:42:26.188128,13.17649491,.0001896,87.9131,5.8058,101.5468,258.5876,0,U,55167,999,16762,.13873E-4,.18E-6,0
ONEWEB-0627,2023-004AE,2026-06-17T12:25:24.832128,13.17647991,.000229,87.9130,5.8086,80.3030,279.8361,0,U,55168,999,16762,-.96882E-4,-.25E-6,0
ONEWEB-0628,2023-004AF,2026-06-17T11:33:00.891648,13.12445524,.000234,87.8947,350.5944,77.3440,282.7950,0,U,55169,999,16807,.61918E-3,.235E-5,0
ONEWEB-0629,2023-004AG,2026-06-17T11:50:10.300128,13.17647766,.0001883,87.9130,5.8095,77.5006,282.6337,0,U,55170,999,16762,-.81922E-4,-.19E-6,0
ONEWEB-0631,2023-004AH,2026-06-17T11:32:26.837088,13.18685172,.0002256,87.9169,335.3768,102.0592,258.0793,0,U,55171,999,16971,.29369E-4,.24E-6,0
ONEWEB-0709,2023-004AJ,2026-06-17T12:13:43.707360,13.11414955,.0001781,87.8882,21.0151,114.0073,246.1242,0,U,55172,999,16591,.12388E-2,.452E-5,0
ONEWEB-0710,2023-004AK,2026-06-17T12:10:50.046816,13.17649239,.0002003,87.9131,5.8021,87.1338,273.0023,0,U,55173,999,16762,-.89563E-4,-.22E-6,0
ONEWEB-0711,2023-004AL,2026-06-17T02:22:52.695264,13.11420753,.0002544,87.8887,21.0842,81.1939,278.9477,0,U,55174,999,16582,-.38909E-4,-.1E-7,0
ONEWEB-0713,2023-004AM,2026-06-17T11:59:05.326944,13.11416615,.0002194,87.8888,21.0062,83.0318,277.1059,0,U,55175,999,16586,.14219E-2,.517E-5,0
ONEWEB-0715,2023-004AN,2026-06-17T11:51:44.864928,13.11419219,.0002074,87.8887,21.0079,104.7780,255.3578,0,U,55176,999,16590,.12381E-2,.452E-5,0
ONEWEB-0716,2023-004AP,2026-06-17T12:01:06.794112,13.17650107,.0001641,87.9132,5.8061,85.8285,274.3034,0,U,55177,999,16762,-.96303E-4,-.25E-6,0
ONEWEB-0717,2023-004AQ,2026-06-17T11:36:49.170816,13.17649031,.0002433,87.9143,5.7968,88.9525,271.1885,0,U,55178,999,16767,.41775E-4,.29E-6,0
ONEWEB-0719,2023-004AR,2026-06-17T11:51:24.348384,13.17649087,.0001753,87.9140,5.7753,82.5111,277.6219,0,U,55179,999,16762,-.54392E-4,-.8E-7,0
ONEWEB-0530,2023-029A,2026-06-17T07:36:46.618272,13.20771802,.0002317,87.9184,274.4430,91.3947,268.7452,0,U,55796,999,16116,.44488E-3,.194E-5,0
ONEWEB-0534,2023-029B,2026-06-17T07:19:47.851680,13.20771784,.0001852,87.9186,274.4459,100.7969,259.3373,0,U,55797,999,16116,.16805E-3,.81E-6,0
ONEWEB-0556,2023-029C,2026-06-17T07:29:29.338368,13.20774023,.000159,87.9184,274.4440,75.3531,284.7779,0,U,55798,999,16116,.28365E-3,.128E-5,0
ONEWEB-0562,2023-029D,2026-06-17T07:10:05.867328,13.20770989,.000228,87.9184,274.4276,78.7442,281.3948,0,U,55799,999,16116,.10498E-3,.56E-6,0
ONEWEB-0563,2023-029E,2026-06-17T07:02:47.559264,13.20869212,.0001204,87.9183,274.4589,103.8462,256.2805,0,U,55800,999,16115,-.48706E-1,-.19776E-3,0
ONEWEB-0564,2023-029F,2026-06-17T01:25:52.347360,13.20770664,.0002137,87.9186,274.4791,90.4465,269.6913,0,U,55801,999,16113,.33594E-4,.27E-6,0
ONEWEB-0638,2023-029G,2026-06-17T07:36:25.765632,13.14503823,.0001717,87.8954,289.7257,82.8651,277.2674,0,U,55802,999,15941,.12485E-2,.476E-5,0
ONEWEB-0639,2023-029H,2026-06-17T09:51:50.615136,13.19725442,.0001314,87.9170,304.9312,128.7965,231.3285,0,U,55803,999,15893,.22422E-3,.103E-5,0
ONEWEB-0640,2023-029J,2026-06-17T09:39:43.454592,13.14503072,.0001344,87.8956,289.6996,84.4030,275.7253,0,U,55804,999,15944,.56893E-3,.224E-5,0
ONEWEB-0641,2023-029K,2026-06-17T09:45:00.604800,13.19725007,.0001782,87.9179,304.9213,103.7965,256.3366,0,U,55805,999,15894,.20969E-3,.97E-6,0
ONEWEB-0642,2023-029L,2026-06-17T09:38:11.781600,13.19725146,.0001595,87.9170,304.9340,126.1193,234.0088,0,U,55806,999,15893,.37819E-3,.164E-5,0
ONEWEB-0643,2023-029M,2026-06-17T08:56:20.474016,13.14503123,.0001928,87.8954,289.6927,121.6575,238.4743,0,U,55807,999,15941,-.28359E-3,-.92E-6,0
